HST                     
1 20580U 90037B   26188.74350551  .00004811  00000+0  14855-3 0  9998
2 20580  28.4736 300.0580 0001929  32.3247 327.7467 15.31004769791723
POLAR                   
1 23802U 96013A   26188.06318554  .00000202  00000+0  00000+0 0  9993
2 23802  79.8793 226.8164 6490473 208.3961  91.1712  1.29846098145111
SWAS                    
1 25560U 98071A   26188.48954360  .00001849  00000+0  12092-3 0  9995
2 25560  69.8940 175.1581 0008163 238.7721 121.2643 15.09718440500331
CXO                     
1 25867U 99040B   26190.53346781  .00000720  00000+0  00000+0 0  9992
2 25867  56.4882 116.0417 7806470 310.0470   0.4589  0.37804829 17409
XMM-NEWTON              
1 25989U 99066A   26189.29225867  .00000112  00000+0  00000+0 0  9992
2 25989  64.3787 282.7174 4670357  64.5370   0.0317  0.50122523 23116
TERRA                   
1 25994U 99068A   26188.77860100  .00000307  00000+0  71539-4 0  9993
2 25994  97.9444 237.5073 0003059 137.6111 341.4830 14.61119717412617
CLUSTER II-FM7 (SAMBA)  
1 26410U 00041A   26190.44939577  .00010356  00000+0  00000+0 0  9997
2 26410 149.8605  54.9301 9081562 272.3489 359.6364  0.44874124 20413
CLUSTER II-FM8 (TANGO)  
1 26464U 00045B   26186.44807693  .00007114  00000+0  00000+0 0  9996
2 26464 150.0908  55.3344 9082146 272.5670   2.3329  0.44420952 20393
ODIN                    
1 26702U 01007A   26187.98430022  .00262243  00000+0  10929-2 0  9998
2 26702  97.3761 230.3091 0005298 141.5779 218.5869 15.85006600392529
TIMED                   
1 26998U 01055B   26188.01250680  .00000961  00000+0  90752-4 0  9994
2 26998  74.0660 195.0990 0002002 309.1711  50.9295 14.95332579333780
CORIOLIS                
1 27640U 03001A   26188.42062040  .00000078  00000+0  57229-4 0  9999
2 27640  98.7130 194.9966 0014593 150.4543 209.7461 14.19950255217096
SORCE                   
1 27651U 03004A   26188.32867393  .00002299  00000+0  17465-3 0  9991
2 27651  39.9895 146.7523 0017916 200.9271 159.0792 15.03813908274935
MOST                    
1 27843U 03031D   26188.48553102  .00000051  00000+0  43575-4 0  9997
2 27843  98.7048 195.9281 0009632 187.2312 172.8728 14.21326656193599
SCISAT 1                
1 27858U 03036A   26188.28179499  .00000622  00000+0  84040-4 0  9995
2 27858  73.9300 131.4176 0007775 200.8409 159.2452 14.81472266234420
SWIFT                   
1 28485U 04047A   26186.87627307  .00061981  00000+0  47565-3 0  9999
2 28485  20.5532  40.5436 0000897 245.9890 114.0463 15.70286946189802
HINODE (SOLAR-B)        
1 29479U 06041A   26188.48849989  .00000592  00000+0  11006-3 0  9992
2 29479  98.0547 204.3417 0016467 219.8369 140.1629 14.68651378 57856
SHIJIAN-6 02A (SJ-6 02A)
1 29505U 06046A   26188.86861047  .00002976  00000+0  15331-3 0  9991
2 29505  97.6346 230.0921 0004569  78.4532 281.7213 15.17187399 75409
SHIJIAN-6 02B (SJ-6 02B)
1 29506U 06046B   26188.87326936  .00000742  00000+0  62120-4 0  9994
2 29506  97.7150 217.8040 0014315   0.4392 359.6842 15.01428015 73843
FGRST (GLAST)           
1 33053U 08029A   26188.06793253  .00002959  00000+0  10499-3 0  9993
2 33053  25.5824  66.4278 0007937 198.7126 161.3121 15.24044403998878
SDO                     
1 36395U 10005A   26188.25007061 -.00000076  00000+0  00000+0 0  9990
2 36395  34.6901  86.0392 0001652  55.2327 131.6689  1.00269725 60267
CRYOSAT 2               
1 36508U 10013A   26188.75755516  .00000138  00000+0  33437-4 0  9998
2 36508  92.0359 282.3023 0002279  97.6765 262.4701 14.51896581861063
X-SAT                   
1 37389U 11015C   26188.86585898 -.00000055  00000+0 -59107-5 0  9998
2 37389  98.3525 164.9051 0012812 284.6574  75.3186 14.25212089790628
GCOM-W1 (SHIZUKU)       
1 38337U 12025A   26188.76995874  .00000380  00000+0  94312-4 0  9997
2 38337  98.2024 129.0144 0001406  65.8117 351.6008 14.57143996752030
NUSTAR                  
1 38358U 12031A   26188.91668980  .00000036  00000+0 -50064-4 0  9994
2 38358   6.0266 238.6429 0006767  50.9366 268.8917 15.09006986  1307
NEOSSAT                 
1 39089U 13009D   26188.48825422  .00000130  00000+0  59671-4 0  9997
2 39089  98.4186   8.0389 0010952 179.6974 180.4221 14.35833637699651
BRITE-AUSTRIA           
1 39091U 13009F   26188.75538072  .00000139  00000+0  61770-4 0  9994
2 39091  98.4005   7.6829 0010305 172.0296 188.1056 14.36550382700001
IRIS                    
1 39197U 13033A   26188.50162562  .00000873  00000+0  10608-3 0  9996
2 39197  97.9322  27.7147 0022992 251.6485 108.2229 14.85926207703396
HISAKI (SPRINT-A)       
1 39253U 13049A   26188.23481475  .00000101  00000+0  46679-4 0  9995
2 39253  29.7191 118.0835 0136917 179.3845 180.6910 13.55546243634144
CASSIOPE                
1 39265U 13055A   26188.74905153  .00028746 -52906-6  30874-3 0  9999
2 39265  80.9132  41.7143 0284809 353.1518   6.5852 15.27038160670807
STSAT-3                 
1 39422U 13066G   26188.88685400  .00001212  00000+0  94879-4 0  9996
2 39422  97.6205 158.4420 0009030 335.6050  24.4746 15.02865016687315
SWARM B                 
1 39451U 13067A   26188.82057338  .00002685  00000+0  95046-4 0  9998
2 39451  87.7455 336.0480 0002596  80.1007 280.0536 15.28684980686399
